NORAD_CAT_ID,OBJECT_NAME,OBJECT_TYPE,EPOCH,MEAN_MOTION,ECCENTRICITY,INCLINATION,RA_OF_ASC_NODE,ARG_OF_PERICENTER,MEAN_ANOMALY,BSTAR,MEAN_MOTION_DOT,MEAN_MOTION_DDOT,TLE_LINE0,TLE_LINE1,TLE_LINE2,SEMIMAJOR_AXIS,PERIOD,APOGEE,PERIGEE,DECAYED
51804.0,STARLINK-3601,PAYLOAD,2022-10-01 02:34:41,15.08843319,0.0001383,53.2177,205.6467,74.4592,285.6553,0.0001139,1.525e-05,0.0,0 STARLINK-3601,1 51804U 22017AN  22274.10742752  .00001525  00000-0  11390-3 0  9995,2 51804  53.2177 205.6467 0001383  74.4592 285.6553 15.08843319 34701,6917.87,95.437,540.692,538.779,0.0
51804.0,STARLINK-3601,PAYLOAD,2022-10-01 12:07:00,15.08849163,0.0001446,53.2177,203.8626,72.1994,287.9156,0.00015482,2.177e-05,0.0,0 STARLINK-3601,1 51804U 22017AN  22274.50486317  .00002177  00000-0  15482-3 0  9991,2 51804  53.2177 203.8626 0001446  72.1994 287.9156 15.08849163 34661,6917.852,95.437,540.7180000000002,538.717,0.0
51804.0,STARLINK-3601,PAYLOAD,2022-10-01 20:03:56,15.08844584,0.0001383,53.2177,202.3761,71.0985,289.0157,1.8849e-05,1.2e-07,0.0,0 STARLINK-3601,1 51804U 22017AN  22274.83606494  .00000012  00000-0  18849-4 0  9994,2 51804  53.2177 202.3761 0001383  71.0985 289.0157 15.08844584 34715,6917.866,95.437,540.688,538.775,0.0
51804.0,STARLINK-3601,PAYLOAD,2022-10-02 02:25:28,15.08839842,0.000143,53.218,201.1856,83.2606,276.8549,-2.4129e-05,-6.72e-06,0.0,0 STARLINK-3601,1 51804U 22017AN  22275.10102698 -.00000672  00000-0 -24129-4 0  9994,2 51804  53.2180 201.1856 0001430  83.2606 276.8549 15.08839842 34854,6917.880999999999,95.438,540.735,538.757,0.0
51804.0,STARLINK-3601,PAYLOAD,2022-10-02 15:08:34,15.08827541,0.0001455,53.2178,198.8087,73.8703,286.2449,-0.00017491,-3.07e-05,0.0,0 STARLINK-3601,1 51804U 22017AN  22275.63095666 -.00003070  00000-0 -17491-3 0  9996,2 51804  53.2178 198.8087 0001455  73.8703 286.2449 15.08827541 34935,6917.918000000002,95.438,540.79,538.7769999999998,0.0
51804.0,STARLINK-3601,PAYLOAD,2022-10-02 19:54:44,15.08830018,0.000144,53.2173,197.9166,74.4826,285.6325,-6.8192e-05,-1.373e-05,0.0,0 STARLINK-3601,1 51804U 22017AN  22275.82967723 -.00001373  00000-0 -68192-4 0  9998,2 51804  53.2173 197.9166 0001440  74.4826 285.6325 15.08830018 34866,6917.911,95.438,540.7719999999998,538.78,0.0
51804.0,STARLINK-3601,PAYLOAD,2022-10-03 02:16:16,15.08839696,0.0001416999999999,53.2174,196.7271,72.055,288.0596,4.379600000000001e-05,4.09e-06,0.0,0 STARLINK-3601,1 51804U 22017AN  22276.09463418  .00000409  00000-0  43796-4 0  9990,2 51804  53.2174 196.7271 0001417  72.0550 288.0596 15.08839696 35008,6917.880999999999,95.438,540.727,538.766,0.0
51804.0,STARLINK-3601,PAYLOAD,2022-10-03 19:45:30,15.08849417,0.0001603,53.2166,193.4545,95.6564,264.4611,0.00061111,9.454e-05,0.0,0 STARLINK-3601,1 51804U 22017AN  22276.82327005  .00009454  00000-0  61111-3 0  9991,2 51804  53.2166 193.4545 0001603  95.6564 264.4611 15.08849417 35019,6917.852,95.437,540.826,538.6080000000002,0.0
51804.0,STARLINK-3601,PAYLOAD,2022-10-04 02:07:02,15.08862935,0.0001428,53.2167,192.2667,84.9406,275.1749,0.00088613,0.00013852,0.0,0 STARLINK-3601,1 51804U 22017AN  22277.08822790  .00013852  00000-0  88613-3 0  9994,2 51804  53.2167 192.2667 0001428  84.9406 275.1749 15.08862935 35159,6917.81,95.436,540.663,538.687,0.0
51804.0,STARLINK-3601,PAYLOAD,2022-10-04 11:39:21,15.08854402,0.000161,53.2171,190.4839,70.2887,289.8279,0.00023578,3.468e-05,0.0,0 STARLINK-3601,1 51804U 22017AN  22277.48566664  .00003468  00000-0  23578-3 0  9994,2 51804  53.2171 190.4839 0001610  70.2887 289.8279 15.08854402 35216,6917.8359999999975,95.437,540.815,538.5880000000002,0.0
51804.0,STARLINK-3601,PAYLOAD,2022-10-04 13:14:44,15.08857491,0.0001469,53.2168,190.1854,78.4359,281.6798,0.00043662,6.671e-05,0.0,0 STARLINK-3601,1 51804U 22017AN  22277.55190600  .00006671  00000-0  43662-3 0  9990,2 51804  53.2168 190.1854 0001469  78.4359 281.6798 15.08857491 35129,6917.8269999999975,95.436,540.7080000000002,538.6759999999998,0.0
51804.0,STARLINK-3601,PAYLOAD,2022-10-05 00:22:26,15.08840704,0.0001546,53.2165,188.1044,58.2856,301.8286,0.00019312,2.787e-05,0.0,0 STARLINK-3601,1 51804U 22017AN  22278.01558940  .00002787  00000-0  19312-3 0  9996,2 51804  53.2165 188.1044 0001546  58.2856 301.8286 15.08840704 35292,6917.878000000002,95.438,540.813,538.674,0.0
51804.0,STARLINK-3601,PAYLOAD,2022-10-05 11:30:09,15.08838674,0.0001183,53.2171,186.0232,70.7755,289.3365,0.001003,0.0001571,0.0,0 STARLINK-3601,1 51804U 22017AN  22278.47927521  .00015710  00000-0  10030-2 0  9998,2 51804  53.2171 186.0232 0001183  70.7755 289.3365 15.08838674 35267,6917.884,95.438,540.568,538.931,0.0
51804.0,STARLINK-3601,PAYLOAD,2022-10-06 00:13:14,15.08837883,0.0001398,53.2179,183.64,91.9732,268.142,0.00085179,0.00013293,0.0,0 STARLINK-3601,1 51804U 22017AN  22279.00920037  .00013293  00000-0  85179-3 0  9994,2 51804  53.2179 183.6400 0001398  91.9732 268.1420 15.08837883 35340,6917.887,95.438,540.719,538.785,0.0
51804.0,STARLINK-3601,PAYLOAD,2022-10-07 00:04:01,15.08848011,0.0001471,53.2189,179.1849,78.4377,281.678,0.00050972,7.835e-05,0.0,0 STARLINK-3601,1 51804U 22017AN  22280.00279952  .00007835  00000-0  50972-3 0  9997,2 51804  53.2189 179.1849 0001471  78.4377 281.6780 15.08848011 35596,6917.856,95.437,540.739,538.703,0.0
51804.0,STARLINK-3601,PAYLOAD,2022-10-07 20:44:02,15.08853431,0.0001405,53.2179,175.3169,80.2595,279.8556,0.00039383,5.988e-05,0.0,0 STARLINK-3601,1 51804U 22017AN  22280.86391596  .00005988  00000-0  39383-3 0  9990,2 51804  53.2179 175.3169 0001405  80.2595 279.8556 15.08853431 35624,6917.839,95.437,540.6759999999998,538.732,0.0
51804.0,STARLINK-3601,PAYLOAD,2022-10-07 23:54:48,15.08844993,0.0001356,53.2178,174.7213,63.8212,296.2920000000001,0.00012534,1.708e-05,0.0,0 STARLINK-3601,1 51804U 22017AN  22280.99639729  .00001708  00000-0  12534-3 0  9992,2 51804  53.2178 174.7213 0001356  63.8212 296.2920 15.08844993 35748,6917.865,95.437,540.668,538.7919999999998,0.0
51804.0,STARLINK-3601,PAYLOAD,2022-10-08 09:27:07,15.08837987,0.0001412,53.2174,172.93599999999995,59.8958,300.2174,-3.6628e-05,-8.71e-06,0.0,0 STARLINK-3601,1 51804U 22017AN  22281.39383959 -.00000871  00000-0 -36628-4 0  9991,2 51804  53.2174 172.9360 0001412  59.8958 300.2174 15.08837987 35801,6917.887,95.438,540.7280000000002,538.775,0.0
51804.0,STARLINK-3601,PAYLOAD,2022-10-08 20:34:49,15.08846666,0.0001423,53.2178,170.8565,51.6995,308.4125,-0.00047633,-7.862e-05,0.0,0 STARLINK-3601,1 51804U 22017AN  22281.85751875 -.00007862  00000-0 -47633-3 0  9992,2 51804  53.2178 170.8565 0001423  51.6995 308.4125 15.08846666 35778,6917.86,95.437,540.7090000000002,538.741,0.0
51804.0,STARLINK-3601,PAYLOAD,2022-10-08 23:45:36,15.08832756,0.0001421,53.2182,170.2611,59.3794,300.7339,-6.5592e-05,-1.331e-05,0.0,0 STARLINK-3601,1 51804U 22017AN  22281.99001066 -.00001331  00000-0 -65592-4 0  9997,2 51804  53.2182 170.2611 0001421  59.3794 300.7339 15.08832756 35899,6917.903,95.438,540.751,538.784,0.0
51804.0,STARLINK-3601,PAYLOAD,2022-10-09 09:17:54,15.088583600000002,0.0001355,53.2183,168.4769,60.8855,299.2272,-0.00026864,-4.563e-05,0.0,0 STARLINK-3601,1 51804U 22017AN  22282.38743768 -.00004563  00000-0 -26864-3 0  9991,2 51804  53.2183 168.4769 0001355  60.8855 299.2272 15.08858360 35958,6917.824000000001,95.436,540.627,538.752,0.0
51804.0,STARLINK-3601,PAYLOAD,2022-10-09 20:25:36,15.08846761,0.0001424,53.2184,166.3943,69.3573,290.7572,0.00020637,2.999e-05,0.0,0 STARLINK-3601,1 51804U 22017AN  22282.85111510  .00002999  00000-0  20637-3 0  9998,2 51804  53.2184 166.3943 0001424  69.3573 290.7572 15.08846761 35926,6917.86,95.437,540.71,538.74,0.0
51804.0,STARLINK-3601,PAYLOAD,2022-10-10 01:11:46,15.08847871,0.0001424,53.2182,165.50400000000005,68.7166,291.3978,0.00031058,4.659e-05,0.0,0 STARLINK-3601,1 51804U 22017AN  22283.04983862  .00004659  00000-0  31058-3 0  9991,2 51804  53.2182 165.5040 0001424  68.7166 291.3978 15.08847871 36059,6917.856,95.437,540.706,538.736,0.0
51804.0,STARLINK-3601,PAYLOAD,2022-10-10 12:19:28,15.08841605,0.0001315,53.2169,163.4221,69.23899999999999,290.8743,0.00020767,3.019e-05,0.0,0 STARLINK-3601,1 51804U 22017AN  22283.51352115  .00003019  00000-0  20767-3 0  9998,2 51804  53.2169 163.4221 0001315  69.2390 290.8743 15.08841605 36026,6917.875,95.437,540.65,538.831,0.0
51804.0,STARLINK-3601,PAYLOAD,2022-10-10 17:05:37,15.08839879,0.0001236,53.2176,162.5297,80.2004,279.9128,0.00016912,2.405e-05,0.0,0 STARLINK-3601,1 51804U 22017AN  22283.71224233  .00002405  00000-0  16912-3 0  9994,2 51804  53.2176 162.5297 0001236  80.2004 279.9128 15.08839879 36153,6917.880999999999,95.438,540.601,538.891,0.0
51804.0,STARLINK-3601,PAYLOAD,2022-10-10 18:41:00,15.0884157,0.0001196,53.217,162.2334,84.53299999999999,275.5799,9.7863e-05,1.27e-05,0.0,0 STARLINK-3601,1 51804U 22017AN  22283.77848015  .00001270  00000-0  97863-4 0  9994,2 51804  53.2170 162.2334 0001196  84.5330 275.5799 15.08841570 36067,6917.876,95.437,540.568,538.913,0.0
51804.0,STARLINK-3601,PAYLOAD,2022-10-11 10:34:52,15.08825544,0.0001304,53.2159,159.2589,96.7243,263.3898,-0.00032572,-5.466e-05,0.0,0 STARLINK-3601,1 51804U 22017AN  22284.44088634 -.00005466  00000-0 -32572-3 0  9990,2 51804  53.2159 159.2589 0001304  96.7243 263.3898 15.08825544 36261,6917.925,95.438,540.692,538.887,0.0
51804.0,STARLINK-3601,PAYLOAD,2022-10-11 12:10:16,15.08821147,0.0001139999999999,53.2168,158.9626,83.8832,276.22900000000004,-0.0003688,-6.149e-05,0.0,0 STARLINK-3601,1 51804U 22017AN  22284.50713002 -.00006149  00000-0 -36880-3 0  9996,2 51804  53.2168 158.9626 0001140  83.8832 276.2290 15.08821147 36172,6917.938,95.439,540.592,539.014,0.0
51804.0,STARLINK-3601,PAYLOAD,2022-10-11 15:21:03,15.08822992,0.0001301,53.2179,158.368,78.4454,281.6684,-0.00018449,-3.221e-05,0.0,0 STARLINK-3601,1 51804U 22017AN  22284.63962567 -.00003221  00000-0 -18449-3 0  9991,2 51804  53.2179 158.3680 0001301  78.4454 281.6684 15.08822992 36296,6917.932,95.439,540.697,538.8969999999998,0.0
